[{"OBJECT_NAME":"STARLINK-35902","OBJECT_ID":"2025-271K","EPOCH":"2026-03-09T11:58:07.254048","MEAN_MOTION":15.30186455,"ECCENTRICITY":0.00010574,"INCLINATION":53.1576,"RA_OF_ASC_NODE":141.0933,"ARG_OF_PERICENTER":68.9225,"MEAN_ANOMALY":291.1889,"EPHEMERIS_TYPE":0,"CLASSIFICATION_TYPE":"U","NORAD_CAT_ID":66626,"ELEMENT_SET_NO":999,"REV_AT_EPOCH":1753,"BSTAR":0.00076116393,"MEAN_MOTION_DOT":0.00022242,"MEAN_MOTION_DDOT":0},{"OBJECT_NAME":"OBJECT P","OBJECT_ID":"2018-099P","EPOCH":"2026-03-09T16:35:55.790016","MEAN_MOTION":15.30834106,"ECCENTRICITY":0.00076856,"INCLINATION":97.4366,"RA_OF_ASC_NODE":131.9195,"ARG_OF_PERICENTER":276.7627,"MEAN_ANOMALY":83.2739,"EPHEMERIS_TYPE":0,"CLASSIFICATION_TYPE":"U","NORAD_CAT_ID":43771,"ELEMENT_SET_NO":999,"REV_AT_EPOCH":39830,"BSTAR":0.00063632878,"MEAN_MOTION_DOT":0.00018926,"MEAN_MOTION_DDOT":0}]
